[{"OBJECT_NAME":"STARLINK-32582","OBJECT_ID":"2024-216B","EPOCH":"2026-03-09T16:23:43.988064","MEAN_MOTION":15.27572071,"ECCENTRICITY":0.00016042,"INCLINATION":42.9967,"RA_OF_ASC_NODE":263.3647,"ARG_OF_PERICENTER":250.8388,"MEAN_ANOMALY":109.229,"EPHEMERIS_TYPE":0,"CLASSIFICATION_TYPE":"U","NORAD_CAT_ID":62033,"ELEMENT_SET_NO":999,"REV_AT_EPOCH":7379,"BSTAR":0.0011402446,"MEAN_MOTION_DOT":0.00031241,"MEAN_MOTION_DDOT":0},{"OBJECT_NAME":"OBJECT C","OBJECT_ID":"2026-023C","EPOCH":"2026-03-09T17:14:42.726048","MEAN_MOTION":15.23105823,"ECCENTRICITY":0.00205519,"INCLINATION":96.6388,"RA_OF_ASC_NODE":141.6892,"ARG_OF_PERICENTER":122.5463,"MEAN_ANOMALY":237.7764,"EPHEMERIS_TYPE":0,"CLASSIFICATION_TYPE":"U","NORAD_CAT_ID":67676,"ELEMENT_SET_NO":999,"REV_AT_EPOCH":502,"BSTAR":0.00045389382,"MEAN_MOTION_DOT":0.00010715,"MEAN_MOTION_DDOT":0}]
